[{"OBJECT_NAME":"STARLINK-5100","OBJECT_ID":"2023-015AY","EPOCH":"2026-03-09T01:24:26.349120","MEAN_MOTION":15.02646487,"ECCENTRICITY":0.00020274,"INCLINATION":43.0053,"RA_OF_ASC_NODE":316.8774,"ARG_OF_PERICENTER":283.8127,"MEAN_ANOMALY":76.249,"EPHEMERIS_TYPE":0,"CLASSIFICATION_TYPE":"U","NORAD_CAT_ID":55495,"ELEMENT_SET_NO":999,"REV_AT_EPOCH":17080,"BSTAR":-0.0018406992,"MEAN_MOTION_DOT":-0.00025054,"MEAN_MOTION_DDOT":0},{"OBJECT_NAME":"HELIOS 2A","OBJECT_ID":"2004-049A","EPOCH":"2026-03-09T21:12:23.746752","MEAN_MOTION":15.02457036,"ECCENTRICITY":0.00022964,"INCLINATION":98.268,"RA_OF_ASC_NODE":116.0483,"ARG_OF_PERICENTER":298.4853,"MEAN_ANOMALY":61.6139,"EPHEMERIS_TYPE":0,"CLASSIFICATION_TYPE":"U","NORAD_CAT_ID":28492,"ELEMENT_SET_NO":999,"REV_AT_EPOCH":13885,"BSTAR":0.0002328623,"MEAN_MOTION_DOT":3.02e-5,"MEAN_MOTION_DDOT":0}]
